GLOBALSTAR M063         
1 26081U 00008A   25055.16091257 -.00000072  00000+0  16160-3 0  9999
2 26081  51.9963  49.2405 0004928  98.4223 343.4516 11.86166204144221
GLOBALSTAR M062         
1 26082U 00008B   25055.18925953 -.00000095  00000+0  19617-4 0  9997
2 26082  51.9847  68.0727 0006859 228.8912 208.7998 12.43459720145060
GLOBALSTAR M060         
1 26083U 00008C   25054.85548500  .00000006  00000+0  96504-3 0  9990
2 26083  52.0048  13.0289 0002926 256.3101 120.0746 12.17655367138566
GLOBALSTAR M064         
1 26084U 00008D   25054.94542812 -.00000084  00000+0 -13830-4 0  9991
2 26084  52.0026 149.9730 0001905 175.2744 184.8107 11.88530083153741
GLOBALSTAR M065         
1 31571U 07020A   25054.90376994 -.00000032  00000+0  40410-3 0  9996
2 31571  51.9874 211.0657 0010956  60.4399  64.3880 12.61993066819108
GLOBALSTAR M069         
1 31573U 07020C   25054.80105686 -.00000079  00000+0  13784-3 0  9990
2 31573  51.9940 175.4974 0001666 101.0017  64.3284 12.47308367820070
GLOBALSTAR M072         
1 31574U 07020D   25054.93252411 -.00000042  00000+0  57208-3 0  9993
2 31574  52.0158 293.4569 0001846  96.7463 276.5238 11.91776827817968
GLOBALSTAR M071         
1 31576U 07020F   25054.83593661 -.00000089  00000+0  19417-4 0  9991
2 31576  52.0049 188.4525 0000849 162.3358 320.3524 12.18249416481129
